NUVIEW BRAVO            
1 62457U 24252D   26166.31387773 -.00000211  00000+0  00000+0 0  9992
2 62457   0.0710 148.8504 0001836 334.9587 169.6683  1.00270115  3774
THURAYA-4               
1 62483U 25001A   26166.02475333  .00000144  00000+0  00000+0 0  9996
2 62483   0.0244  61.2066 0000252 208.6331  46.6976  1.00272022  4152
SHIJIAN-25 (SJ-25)      
1 62485U 25002A   26166.67470828 -.00000352  00000+0  00000+0 0  9996
2 62485   5.1098  61.1749 0052218 173.3259  39.6557  1.00268248  5344
TJS-14                  
1 62804U 25017A   26166.26265456  .00000120  00000+0  00000+0 0  9993
2 62804   0.7868 295.4923 0000977 290.4528 150.5394  1.00273402  5256
SPAINSAT NG I           
1 62852U 25021A   26166.26482125  .00000155  00000+0  00000+0 0  9993
2 62852   0.0139 329.3913 0000300 248.3938 170.1087  1.00272968  3965
QZS-6 (MICHIBIKI-6)     
1 62876U 25023A   26166.59242508 -.00000231  00000+0  00000+0 0  9992
2 62876   0.0500  68.5630 0001700  22.1831 116.9254  1.00271022  4938
ZHONGXING-10R           
1 63075U 25036A   26166.62743829 -.00000350  00000+0  00000+0 0  9996
2 63075   0.0307 242.8262 0003420 257.4377 100.0555  1.00272248  4942
TJS-15                  
1 63157U 25045A   26166.75665602 -.00000263  00000+0  00000+0 0  9996
2 63157   0.2819  85.5188 0004653 296.3695 248.9385  1.00271770  4746
TIANLIAN 2-04           
1 63361U 25062A   26166.41740829 -.00000129  00000+0  00000+0 0  9991
2 63361   4.3792 274.4670 0031752  10.3726 209.1825  1.00271715  4581
TJS-16                  
1 63397U 25064A   26166.74120155 -.00000104  00000+0  00000+0 0  9995
2 63397   1.0947  81.4631 0003346 288.8625 321.1370  1.00271298  4370
TJS-17                  
1 63524U 25073A   26166.64808475 -.00000068  00000+0  00000+0 0  9993
2 63524   1.0603  82.7072 0002069 295.7661 283.3003  1.00271945  4272
TIANLIAN 2-05           
1 63662U 25084A   26166.54825356  .00000130  00000+0  00000+0 0  9993
2 63662   4.4553 279.8559 0003075 146.1165  55.5836  1.00269616  4366
TJS-19                  
1 63924U 25097A   26166.75495963 -.00000274  00000+0  00000+0 0  9998
2 63924   3.2887 317.4231 0002327 241.3377 118.2267  1.00265867  4125
CHINASAT 3B             
1 64062U 25106A   26166.55252971 -.00000043  00000+0  00000+0 0  9995
2 64062   0.0273  95.7579 0002897  29.3980 144.9071  1.00270248  4049
SXM-10                  
1 64290U 25122A   26166.01642035 -.00000012  00000+0  00000+0 0  9997
2 64290   0.0180  20.5552 0001715 338.6402 153.8564  1.00271714  3661
COSMOS 2589             
1 64467U 25131A   26166.75856389 -.00000290  00000+0  00000+0 0  9991
2 64467   0.0298  73.2464 0000171  36.0835 165.7556  1.00272983  3547
CHINASAT 9C             
1 64470U 25132A   26166.49092426  .00000000  00000+0  00000+0 0  9999
2 64470   0.0173   5.8840 0002535  77.3153  89.5103  1.00267898  4135
MTG-S1                  
1 64723U 25143A   26166.32965113 -.00000028  00000+0  00000+0 0  9997
2 64723   0.6048 338.5512 0000988  10.7068  29.5609  1.00271862  3401
DROR 1                  
1 64784U 25148A   26166.32956447 -.00000031  00000+0  00000+0 0  9993
2 64784   0.0307  58.7132 0002531 329.4023 350.1404  1.00271820  3271
SHIYAN-29               
1 65486U 25196A   26160.07536391 -.00000259  00000+0  00000+0 0  9996
2 65486  28.8121  18.6391 0010972 171.7452 188.2752  1.00256520  2799
NUSANTARA LIMA (NUSANT*)
1 65588U 25205A   26166.35270457 -.00000354  00000+0  00000+0 0  9991
2 65588   0.0174  94.9813 0000176  63.4458 345.0370  1.00268607  2705
TJS-20                  
1 66142U 25238A   26166.48529090  .00000030  00000+0  00000+0 0  9998
2 66142   5.4733 299.5634 0004496 162.5825  38.7587  1.00273899  2316
CMS-03 (GSAT-7R)        
1 66311U 25249B   26166.48754425  .00000000  00000+0  00000+0 0  9997
2 66311   0.0172  10.1095 0001500  71.0558  72.1116  1.00270075  2335
VIASAT-3 F2             
1 66454U 25261A   26165.60175115 -.00000227  00000+0  00000+0 0  9997
2 66454   0.0513 158.2746 0000136 130.5402 111.7385  1.00271296  2763
SHIJIAN-28 (SJ-28)      
1 66549U 25277A   26166.56733200 -.00000354  00000+0  00000+0 0  9991
2 66549   4.5423 272.1619 0000830 348.2957 324.3567  1.00263304  2132
TJS-22                  
1 66990U 25290A   26165.88247580  .00000000  00000+0  00000+0 0  9998
2 66990   1.5341 286.5373 0001907 330.5141  30.2894  1.00273237  2007
TJS-23                  
1 67226U 25306A   26165.60894102  .00000028  00000+0  00000+0 0  9997
2 67226   5.5937 297.5015 0005357 169.3915 190.7745  1.00274876  1860
FENGYUN 4C              
1 67246U 25312A   26166.62896605 -.00000321  00000+0  00000+0 0  9996
2 67246   0.0515 147.2874 0000509  68.5797  47.4649  1.00271140  1761
SHIJIAN-29A (SJ-29A)    
1 67302U 25315A   26166.76450170 -.00000068  00000+0  00000+0 0  9998
2 67302   3.3944  95.1429 0003100  25.4551 131.8620  1.00269602  1603
SHIJIAN-29B (SJ-29B)    
1 67403U 25315C   26166.76450193 -.00000068  00000+0  00000+0 0  9995
2 67403   3.3932  95.1356 0003721  33.2757 124.0890  1.00269382  1670
ELEKTRO-L 5             
1 67756U 26028A   26166.05730378 -.00000092  00000+0  00000+0 0  9993
2 67756   0.2554 310.8802 0001762 180.7355 228.4002  1.00271134  1239
JAM-E JAM 1             
1 67757U 26028B   26166.55094024  .00000158  00000+0  00000+0 0  9992
2 67757   0.2636 301.8572 0001218 299.2839 254.9684  1.00274626  1109
