OBJECT_NAME,OBJECT_ID,EPOCH,MEAN_MOTION,ECCENTRICITY,INCLINATION,RA_OF_ASC_NODE,ARG_OF_PERICENTER,MEAN_ANOMALY,EPHEMERIS_TYPE,CLASSIFICATION_TYPE,NORAD_CAT_ID,ELEMENT_SET_NO,REV_AT_EPOCH,BSTAR,MEAN_MOTION_DOT,MEAN_MOTION_DDOT
NUVIEW BRAVO,2024-252D,2026-06-15T07:31:59.035872,1.00270115,.0001836,0.0710,148.8504,334.9587,169.6683,0,U,62457,999,377,0,-.211E-5,0
THURAYA-4,2025-001A,2026-06-15T00:35:38.687712,1.00272022,.00002529,0.0244,61.2066,208.6331,46.6976,0,U,62483,999,415,0,.144E-5,0
SHIJIAN-25 (SJ-25),2025-002A,2026-06-15T16:11:34.795392,1.00268248,.0052218,5.1098,61.1749,173.3259,39.6557,0,U,62485,999,534,0,-.352E-5,0
TJS-14,2025-017A,2026-06-15T06:18:13.353984,1.00273402,.0000977,0.7868,295.4923,290.4528,150.5394,0,U,62804,999,525,0,.12E-5,0
SPAINSAT NG I,2025-021A,2026-06-15T06:21:20.556000,1.00272968,.00003009,0.0139,329.3913,248.3938,170.1087,0,U,62852,999,396,0,.155E-5,0
QZS-6 (MICHIBIKI-6),2025-023A,2026-06-15T14:13:05.526912,1.00271022,.00017002,0.0500,68.5630,22.1831,116.9254,0,U,62876,999,493,0,-.231E-5,0
ZHONGXING-10R,2025-036A,2026-06-15T15:03:30.668256,1.00272248,.00034205,0.0307,242.8262,257.4377,100.0555,0,U,63075,999,494,0,-.35E-5,0
TJS-15,2025-045A,2026-06-15T18:09:35.080128,1.00271770,.0004653,0.2819,85.5188,296.3695,248.9385,0,U,63157,999,474,0,-.263E-5,0
TIANLIAN 2-04,2025-062A,2026-06-15T10:01:04.076256,1.00271715,.00317525,4.3792,274.4670,10.3726,209.1825,0,U,63361,999,458,0,-.129E-5,0
TJS-16,2025-064A,2026-06-15T17:47:19.813920,1.00271298,.0003346,1.0947,81.4631,288.8625,321.1370,0,U,63397,999,437,0,-.104E-5,0
TJS-17,2025-073A,2026-06-15T15:33:14.522400,1.00271945,.0002069,1.0603,82.7072,295.7661,283.3003,0,U,63524,999,427,0,-.68E-6,0
TIANLIAN 2-05,2025-084A,2026-06-15T13:09:29.107584,1.00269616,.00030757,4.4553,279.8559,146.1165,55.5836,0,U,63662,999,436,0,.13E-5,0
TJS-19,2025-097A,2026-06-15T18:07:08.512032,1.00265867,.0002327,3.2887,317.4231,241.3377,118.2267,0,U,63924,999,412,0,-.274E-5,0
CHINASAT 3B,2025-106A,2026-06-15T13:15:38.566944,1.00270248,.00028977,0.0273,95.7579,29.3980,144.9071,0,U,64062,999,404,0,-.43E-6,0
SXM-10,2025-122A,2026-06-15T00:23:38.718240,1.00271714,.00017158,0.0180,20.5552,338.6402,153.8564,0,U,64290,999,366,0,-.12E-6,0
COSMOS 2589,2025-131A,2026-06-15T18:12:19.920096,1.00272983,.0000171,0.0298,73.2464,36.0835,165.7556,0,U,64467,999,354,0,-.29E-5,0
CHINASAT 9C,2025-132A,2026-06-15T11:46:55.856064,1.00267898,.00025357,0.0173,5.8840,77.3153,89.5103,0,U,64470,999,413,0,0,0
MTG-S1,2025-143A,2026-06-15T07:54:41.857632,1.00271862,.0000988,0.6048,338.5512,10.7068,29.5609,0,U,64723,999,340,0,-.28E-6,0
DROR 1,2025-148A,2026-06-15T07:54:34.370208,1.00271820,.00025313,0.0307,58.7132,329.4023,350.1404,0,U,64784,999,327,0,-.31E-6,0
SHIYAN-29,2025-196A,2026-06-09T01:48:31.441824,1.00256520,.00109724,28.8121,18.6391,171.7452,188.2752,0,U,65486,999,279,0,-.259E-5,0
NUSANTARA LIMA (NUSANTARA 5),2025-205A,2026-06-15T08:27:53.674848,1.00268607,.00001767,0.0174,94.9813,63.4458,345.0370,0,U,65588,999,270,0,-.354E-5,0
TJS-20,2025-238A,2026-06-15T11:38:49.133760,1.00273899,.00044962,5.4733,299.5634,162.5825,38.7587,0,U,66142,999,231,0,.3E-6,0
CMS-03 (GSAT-7R),2025-249B,2026-06-15T11:42:03.823200,1.00270075,.00015006,0.0172,10.1095,71.0558,72.1116,0,U,66311,999,233,0,0,0
VIASAT-3 F2,2025-261A,2026-06-14T14:26:31.299360,1.00271296,.00001368,0.0513,158.2746,130.5402,111.7385,0,U,66454,999,276,0,-.227E-5,0
SHIJIAN-28 (SJ-28),2025-277A,2026-06-15T13:36:57.484800,1.00263304,.00008307,4.5423,272.1619,348.2957,324.3567,0,U,66549,999,213,0,-.354E-5,0
TJS-22,2025-290A,2026-06-14T21:10:45.909120,1.00273237,.00019079,1.5341,286.5373,330.5141,30.2894,0,U,66990,999,200,0,0,0
TJS-23,2025-306A,2026-06-14T14:36:52.504128,1.00274876,.00053578,5.5937,297.5015,169.3915,190.7745,0,U,67226,999,186,0,.28E-6,0
FENGYUN 4C,2025-312A,2026-06-15T15:05:42.666720,1.00271140,.00005091,0.0515,147.2874,68.5797,47.4649,0,U,67246,999,176,0,-.321E-5,0
SHIJIAN-29A (SJ-29A),2025-315A,2026-06-15T18:20:52.946880,1.00269602,.00031,3.3944,95.1429,25.4551,131.8620,0,U,67302,999,160,0,-.68E-6,0
SHIJIAN-29B (SJ-29B),2025-315C,2026-06-15T18:20:52.966752,1.00269382,.0003721,3.3932,95.1356,33.2757,124.0890,0,U,67403,999,167,0,-.68E-6,0
ELEKTRO-L 5,2026-028A,2026-06-15T01:22:31.046592,1.00271134,.00017621,0.2554,310.8802,180.7355,228.4002,0,U,67756,999,123,0,-.92E-6,0
JAM-E JAM 1,2026-028B,2026-06-15T13:13:21.236736,1.00274626,.00012186,0.2636,301.8572,299.2839,254.9684,0,U,67757,999,110,0,.158E-5,0
